KUIPER-00089            
1 64834U 25151U   25286.33336806 -.00643226  00000+0 -38338-1 0  9994
2 64834  51.8978 219.9877 0003267 116.0900 285.3447 15.13000108  4717
KUIPER-00090            
1 64835U 25151V   25286.33336806 -.00378149  00000+0 -13960-1 0  9998
2 64835  51.8796 218.1510 0007906 124.9246  58.7117 15.28831278  3942
KUIPER-00091            
1 64836U 25151W   25286.33336806 -.00046107  00000+0 -22937-2 0  9990
2 64836  51.8811 219.1201 0008153 123.9780 272.4342 15.17098075  3770
KUIPER-00092            
1 64837U 25151X   25286.33336806 -.00656258  00000+0 -61733-1 0  9991
2 64837  51.8911 222.8567 0008033 104.5230 330.5398 14.96064677  1772
KUIPER-00093            
1 64838U 25151Y   25286.33336806 -.00944702  00000+0 -10849+0 0  9996
2 64838  51.8953 224.9128 0014870 117.9019 234.2971 14.88209722  1437
KUIPER-00094            
1 64839U 25151Z   25286.33336806 -.00946178  00000+0 -59589-1 0  9992
2 64839  51.8880 220.0948 0007506 122.2254 140.4246 15.11574011  4363
KUIPER-00081            
1 65132U 25171A   25285.96230540  .00045487  00000+0  12126-2 0  9995
2 65132  51.8742 103.1868 0004650 347.7838  12.3036 15.37698562 10859
KUIPER-00088            
1 65133U 25171B   25286.33336806 -.00506859  00000+0 -23703-1 0  9999
2 65133  51.8868 102.3582 0006719 334.4346 173.6946 15.21583187  4772
